Domain,Country,Region,City,Postcode,Road,Road Number
enigmacs.com,United Kingdom,England,Windsor and Maidenhead,SL4 1RU,,
darksteve.com,United Kingdom,England,Westminster,W1W 7LT,,
urbanstrides.com,United Kingdom,England,Swindon,SN4 0EU,,
pescodsquare.com,United Kingdom,England,Barking and Dagenham,IG11 8RT,,
rmsrecruitment.com,United Kingdom,England,Westminster,SW1V 1JT,,
dsnmltd.com,United Kingdom,England,Southampton,SO15 2JU,,
ivfbioscience.com,United Kingdom,England,Cornwall,TR11 4TA,,
pyedesign.com,United Kingdom,England,Cheshire East,SK9 5AF,,
lawnturfnottingham.com,United Kingdom,England,Broxtowe,NG9 2ET,,
retreathousepleshey.com,United Kingdom,England,Chelmsford,CM3 1HA,,
nuttall.co.uk,United States,New York,Akron,14001,,
regenteng.com,United Kingdom,England,Walsall,WS10 8XB,,
ferrellaw.com,United States,Virginia,Clifton,20124,,
indilab.com,Germany,Berlin,Berlin,10367,,
thegoodguest.com,Germany,Massachusetts,Tyringham,01264,,
a-baldoverhead.com,United States,Washington,Hooper,99333,,
tripeek.com,United States,California,Escondido,92033,,
gid-it.de,Germany,West Virginia,Glen White,25849,,
sorrentoeast.org,United States,Florida,Nokomis,34274,,
scottyshubcaps.com,United States,Pennsylvania,Oakland Mills,17076,,
sureleader.com,United States,Idaho,Glenns Ferry,83623,,
architecturalplants.com,United Kingdom,England,Horsham,RH20 1DJ,,
infinity-reisen.com,Germany,Baden-Württemberg,Fellbach,70736,,
barts-choir.com,United Kingdom,England,Westminster,W2 3UD,,
optilan.com,United Kingdom,England,Birmingham,B4 6FD,,
regenteng.com,United Kingdom,England,Walsall,WS10 8XB,,
ferrellaw.com,United States,Virginia,Clifton,20124,,
mobiuslabs.com,Germany,Berlin,Berlin,13355,,
architecturalplants.com,United Kingdom,England,Horsham,RH20 1DJ,,
lawnturfnottingham.com,United Kingdom,England,Ashfield,NG15 6UD,,
retreathousepleshey.com,United Kingdom,England,Chelmsford,CM3 1HA,,
barts-choir.com,United Kingdom,England,Westminster,W2 3UD,,
thegoodguest.com,United Kingdom,England,Wiltshire,SN8 3NQ,,
optilan.com,United Kingdom,England,Birmingham,B4 6FD,,
porterfieldbrakes.co.uk,United Kingdom,Wales,Monmouthshire,NP26 5PT,,
durhambox.co.uk,United Kingdom,England,County Durham,DL14 9AD,,
crg1.co.uk,United Kingdom,England,Northumberland,NE65 0ZF,,
frostsgardencentres.co.uk,United Kingdom,England,Milton Keynes,MK17 8UE,,
medicaldevice.co.uk,United Kingdom,Scotland,City of Edinburgh,EH14 7JJ,,
cjei.co.uk,United Kingdom,England,Dorset,DT11 9JE,,
carsite.co.uk,United Kingdom,England,Camden,WC1X 8NL,,
lodestar.org.uk,United Kingdom,England,East Cambridgeshire,CB25 9HB,,
portogramltd.co.uk,United Kingdom,England,Amber Valley,DE56 1WD,,
wake-smith.co.uk,United Kingdom,England,Sheffield,S1 4BY,,
caremeds.co.uk,United Kingdom,England,Eastleigh,SO53 4DR,,
mirabellabeautysalon.co.uk,United Kingdom,England,Chelmsford,CM2 0LD,,
fishplant.co.uk,United Kingdom,England,Newcastle-under-Lyme,ST5 7HT,,
redkitebaby.co.uk,United Kingdom,England,South Gloucestershire,BS37 5QX,,
fernwoodcommercials.co.uk,United Kingdom,England,Thurrock,RM19 1TT,,
sk-design.co.uk,United Kingdom,England,Leeds,WF3 3JU,,
quickits.co.uk,United Kingdom,England,Ashfield,NG17 5LD,,
corporateentertainmentco.co.uk,United Kingdom,England,Wealden,TN22 1HB,,
flackleyashhotel.co.uk,United Kingdom,England,Rother,TN31 6YH,,
ps-antriebstechnik.de,Germany,Baden-Württemberg,Ubstadt-Weiher,76698,,
primadollar.com,United Kingdom,England,Guildford,GU2 4JB,,
himmelhochjauchzend.com,Germany,Nordrhein-Westfalen,Minden,32423,,
mobilepie.com,United Kingdom,England,"Bristol, City of",BS1 2NN,,


conisboroughcollege.co.uk,United Kingdom,England,Lewisham,SE6 2SE,,
ferrellaw.com,United States,Virginia,Clifton,20124,,
mariastarling.com,United Kingdom,England,Norwich,NR2 1NQ,,
wake-smith.co.uk,United Kingdom,England,Sheffield,S1 4BY,,
themartialartscentre.com,United Kingdom,England,Braintree,CM7 2QS,,
crg1.co.uk,United States,England,Northumberland,NE65 0ZF,,
yourofficeandpa.co.uk,United Kingdom,England,Halton,WA7 1NG,,
bigfinish.com,United Kingdom,England,Wokingham,RG6 9UL,,
sentiment.io,United Kingdom,England,Rushmoor,GU14 7JF,,
crystalage.com,Germany,England,South Gloucestershire,BS35 9DG,,
corporateentertainmentco.co.uk,United Kingdom,England,Wealden,TN22 1HB,,
mobilepie.com,United Kingdom,England,"Bristol, City of",BS1 2NN,,
carsite.co.uk,United Kingdom,England,Camden,WC1X 8NL,,
frostsgardencentres.co.uk,United Kingdom,England,Milton Keynes,MK17 8UE,,
optilan.com,United States,England,Birmingham,B4 6FD,,
liverpoolairport.com,United Kingdom,England,Liverpool,L24 1YD,,

regenteng.com,United Kingdom,England,Walsall,WS10 8XB,,
retreathousepleshey.com,United Kingdom,England,Chelmsford,CM3 1HA,,
optilan.com,United Kingdom,England,Birmingham,B4 6FD,,
frostsgardencentres.co.uk,United Kingdom,England,Milton Keynes,MK17 8UE,,
carsite.co.uk,United Kingdom,England,Camden,WC1X 8NL,,
mobilepie.com,United Kingdom,England,"Bristol, City of",BS1 2NN,,
corporateentertainmentco.co.uk,United Kingdom,England,Wealden,TN22 1HB,